start=new Date('2022-04-04T00:00:00.000Z').valueOf();
sats=[{"REV_AT_EPOCH":"709","SITE":"AFWTR","SEMIMAJOR_AXIS":"6727.828","BSTAR":"-0.00027227000000","ECCENTRICITY":"0.00011220","CLASSIFICATION_TYPE":"U","ARG_OF_PERICENTER":"67.9933","COUNTRY_CODE":"US","MEAN_MOTION_DDOT":"0.0000000000000","MEAN_ANOMALY":"168.6406","PERIOD":"91.532","OBJECT_NAME":"STARLINK-3608","OBJECT_ID":"2022-017J","MEAN_MOTION_DOT":"-0.00038693","TLE_LINE1":"1 51776U 22017J   22093.91667824 -.00038693  00000-0 -27227-3 0  9991","EPOCH":"2022-04-03T22:00:00.999936","INCLINATION":"53.2155","TLE_LINE2":"2 51776  53.2155 319.1538 0001122  67.9933 168.6406 15.73223679  7094","LAUNCH_DATE":"2022-02-25","MEAN_ELEMENT_THEORY":"SGP4","PERIAPSIS":"348.938","MEAN_MOTION":"15.73223679","DECAY_DATE":null,"ELEMENT_SET_NO":"999","EPHEMERIS_TYPE":"0","NORAD_CAT_ID":"51776","APOAPSIS":"350.448","REF_FRAME":"TEME","GP_ID":"200357065","RA_OF_ASC_NODE":"319.1538","TIME_SYSTEM":"UTC","RCS_SIZE":"LARGE","FILE":"3386907","OBJECT_TYPE":"PAYLOAD","CENTER_NAME":"EARTH"},{"RCS_SIZE":"LARGE","GP_ID":"200357257","RA_OF_ASC_NODE":"319.1535","REF_FRAME":"TEME","TIME_SYSTEM":"UTC","EPHEMERIS_TYPE":"0","NORAD_CAT_ID":"51777","APOAPSIS":"350.802","OBJECT_TYPE":"PAYLOAD","CENTER_NAME":"EARTH","FILE":"3386907","TLE_LINE1":"1 51777U 22017K   22093.91667824  .00052503  00000-0  37732-3 0  9998","OBJECT_ID":"2022-017K","MEAN_MOTION_DOT":"0.00052503","ELEMENT_SET_NO":"999","DECAY_DATE":null,"MEAN_ELEMENT_THEORY":"SGP4","PERIAPSIS":"349.128","MEAN_MOTION":"15.73128305","EPOCH":"2022-04-03T22:00:00.999936","TLE_LINE2":"2 51777  53.2141 319.1535 0001244  81.2556 153.9388 15.73128305  7100","LAUNCH_DATE":"2022-02-25","INCLINATION":"53.2141","CLASSIFICATION_TYPE":"U","ARG_OF_PERICENTER":"81.2556","MEAN_ANOMALY":"153.9388","PERIOD":"91.537","OBJECT_NAME":"STARLINK-3625","COUNTRY_CODE":"US","MEAN_MOTION_DDOT":"0.0000000000000","SEMIMAJOR_AXIS":"6728.100","REV_AT_EPOCH":"710","SITE":"AFWTR","ECCENTRICITY":"0.00012440","BSTAR":"0.00037732000000"},{"TLE_LINE2":"2 51778  53.2176 318.8087 0001126  99.2657 309.4605 15.73157666  7110","INCLINATION":"53.2176","LAUNCH_DATE":"2022-02-25","EPOCH":"2022-04-03T22:00:00.999936","MEAN_MOTION":"15.73157666","PERIAPSIS":"349.123","MEAN_ELEMENT_THEORY":"SGP4","ELEMENT_SET_NO":"999","DECAY_DATE":null,"MEAN_MOTION_DOT":"0.00059368","OBJECT_ID":"2022-017L","TLE_LINE1":"1 51778U 22017L   22093.91667824  .00059368  00000-0  42520-3 0  9996","FILE":"3386907","OBJECT_TYPE":"PAYLOAD","CENTER_NAME":"EARTH","NORAD_CAT_ID":"51778","APOAPSIS":"350.638","EPHEMERIS_TYPE":"0","TIME_SYSTEM":"UTC","RA_OF_ASC_NODE":"318.8087","GP_ID":"200357066","REF_FRAME":"TEME","RCS_SIZE":"LARGE","BSTAR":"0.00042520000000","ECCENTRICITY":"0.00011260","SITE":"AFWTR","REV_AT_EPOCH":"711","SEMIMAJOR_AXIS":"6728.016","MEAN_MOTION_DDOT":"0.0000000000000","COUNTRY_CODE":"US","OBJECT_NAME":"STARLINK-3615","PERIOD":"91.536","MEAN_ANOMALY":"309.4605","ARG_OF_PERICENTER":"99.2657","CLASSIFICATION_TYPE":"U"},{"MEAN_ELEMENT_THEORY":"SGP4","PERIAPSIS":"349.004","MEAN_MOTION":"15.73111832","EPOCH":"2022-04-03T22:00:00.999936","TLE_LINE2":"2 51779  53.2139 319.1496 0001497  75.6411 161.5143 15.73111832  3693","LAUNCH_DATE":"2022-02-25","INCLINATION":"53.2139","DECAY_DATE":null,"ELEMENT_SET_NO":"999","OBJECT_ID":"2022-017M","MEAN_MOTION_DOT":"0.00032179","TLE_LINE1":"1 51779U 22017M   22093.91667824  .00032179  00000-0  23369-3 0  9998","FILE":"3386965","OBJECT_TYPE":"PAYLOAD","CENTER_NAME":"EARTH","EPHEMERIS_TYPE":"0","NORAD_CAT_ID":"51779","APOAPSIS":"351.019","RCS_SIZE":"LARGE","GP_ID":"200382473","REF_FRAME":"TEME","RA_OF_ASC_NODE":"319.1496","TIME_SYSTEM":"UTC","BSTAR":"0.00023369000000","ECCENTRICITY":"0.00014970","REV_AT_EPOCH":"369","SITE":"AFWTR","SEMIMAJOR_AXIS":"6728.147","COUNTRY_CODE":"US","MEAN_MOTION_DDOT":"0.0000000000000","MEAN_ANOMALY":"161.5143","PERIOD":"91.538","OBJECT_NAME":"STARLINK-3611","CLASSIFICATION_TYPE":"U","ARG_OF_PERICENTER":"75.6411"},{"MEAN_ANOMALY":"156.4059","PERIOD":"91.538","OBJECT_NAME":"STARLINK-3617","COUNTRY_CODE":"US","MEAN_MOTION_DDOT":"0.0000000000000","CLASSIFICATION_TYPE":"U","ARG_OF_PERICENTER":"83.3079","ECCENTRICITY":"0.00011190","BSTAR":"-0.00011834000000","SEMIMAJOR_AXIS":"6728.130","REV_AT_EPOCH":"369","SITE":"AFWTR","OBJECT_TYPE":"PAYLOAD","CENTER_NAME":"EARTH","FILE":"3386965","RCS_SIZE":"LARGE","GP_ID":"200382050","REF_FRAME":"TEME","RA_OF_ASC_NODE":"319.1459","TIME_SYSTEM":"UTC","EPHEMERIS_TYPE":"0","APOAPSIS":"350.748","NORAD_CAT_ID":"51780","DECAY_DATE":null,"ELEMENT_SET_NO":"999","PERIAPSIS":"349.242","MEAN_ELEMENT_THEORY":"SGP4","MEAN_MOTION":"15.73117550","EPOCH":"2022-04-03T22:00:00.999936","INCLINATION":"53.2145","TLE_LINE2":"2 51780  53.2145 319.1459 0001119  83.3079 156.4059 15.73117550  3690","LAUNCH_DATE":"2022-02-25","TLE_LINE1":"1 51780U 22017N   22093.91667824 -.00017134  00000-0 -11834-3 0  9990","OBJECT_ID":"2022-017N","MEAN_MOTION_DOT":"-0.00017134"},{"SEMIMAJOR_AXIS":"6728.073","REV_AT_EPOCH":"369","SITE":"AFWTR","ECCENTRICITY":"0.00010210","BSTAR":"0.00037120000000","CLASSIFICATION_TYPE":"U","ARG_OF_PERICENTER":"76.2221","MEAN_ANOMALY":"161.4984","PERIOD":"91.537","OBJECT_NAME":"STARLINK-3580","COUNTRY_CODE":"US","MEAN_MOTION_DDOT":"0.0000000000000","TLE_LINE1":"1 51781U 22017P   22093.91667824  .00051657  00000-0  37120-3 0  9993","OBJECT_ID":"2022-017P","MEAN_MOTION_DOT":"0.00051657","DECAY_DATE":null,"ELEMENT_SET_NO":"999","PERIAPSIS":"349.251","MEAN_MOTION":"15.73137642","MEAN_ELEMENT_THEORY":"SGP4","EPOCH":"2022-04-03T22:00:00.999936","TLE_LINE2":"2 51781  53.2154 319.1507 0001021  76.2221 161.4984 15.73137642  3694","LAUNCH_DATE":"2022-02-25","INCLINATION":"53.2154","RCS_SIZE":"LARGE","GP_ID":"200382663","REF_FRAME":"TEME","RA_OF_ASC_NODE":"319.1507","TIME_SYSTEM":"UTC","EPHEMERIS_TYPE":"0","APOAPSIS":"350.625","NORAD_CAT_ID":"51781","OBJECT_TYPE":"PAYLOAD","CENTER_NAME":"EARTH","FILE":"3386965"},{"CLASSIFICATION_TYPE":"U","ARG_OF_PERICENTER":"52.4510","PERIOD":"92.914","MEAN_ANOMALY":"236.5023","OBJECT_NAME":"STARLINK-3616","COUNTRY_CODE":"US","MEAN_MOTION_DDOT":"0.0000000000000","SEMIMAJOR_AXIS":"6795.379","REV_AT_EPOCH":"708","SITE":"AFWTR","ECCENTRICITY":"0.00013190","BSTAR":"0.00089259000000","GP_ID":"200357267","REF_FRAME":"TEME","RA_OF_ASC_NODE":"320.4362","TIME_SYSTEM":"UTC","RCS_SIZE":"LARGE","EPHEMERIS_TYPE":"0","APOAPSIS":"418.141","NORAD_CAT_ID":"51782","OBJECT_TYPE":"PAYLOAD","CENTER_NAME":"EARTH","FILE":"3386907","TLE_LINE1":"1 51782U 22017Q   22093.91667824  .00050424  00000-0  89259-3 0  9995","OBJECT_ID":"2022-017Q","MEAN_MOTION_DOT":"0.00050424","DECAY_DATE":null,"ELEMENT_SET_NO":"999","EPOCH":"2022-04-03T22:00:00.999936","INCLINATION":"53.2164","TLE_LINE2":"2 51782  53.2164 320.4362 0001319  52.4510 236.5023 15.49823383  7089","LAUNCH_DATE":"2022-02-25","MEAN_MOTION":"15.49823383","PERIAPSIS":"416.348","MEAN_ELEMENT_THEORY":"SGP4"},{"APOAPSIS":"350.611","NORAD_CAT_ID":"51783","EPHEMERIS_TYPE":"0","RCS_SIZE":"LARGE","TIME_SYSTEM":"UTC","GP_ID":"200357083","REF_FRAME":"TEME","RA_OF_ASC_NODE":"319.1459","FILE":"3386908","OBJECT_TYPE":"PAYLOAD","CENTER_NAME":"EARTH","MEAN_MOTION_DOT":"0.00007684","OBJECT_ID":"2022-017R","TLE_LINE1":"1 51783U 22017R   22093.91667824  .00007684  00000-0  59151-4 0  9995","PERIAPSIS":"349.002","MEAN_MOTION":"15.73183798","MEAN_ELEMENT_THEORY":"SGP4","TLE_LINE2":"2 51783  53.2142 319.1459 0001196  88.8614 150.3129 15.73183798  7096","INCLINATION":"53.2142","LAUNCH_DATE":"2022-02-25","EPOCH":"2022-04-03T22:00:00.999936","DECAY_DATE":null,"ELEMENT_SET_NO":"999","ARG_OF_PERICENTER":"88.8614","CLASSIFICATION_TYPE":"U","MEAN_MOTION_DDOT":"0.0000000000000","COUNTRY_CODE":"US","OBJECT_NAME":"STARLINK-3628","MEAN_ANOMALY":"150.3129","PERIOD":"91.534","SITE":"AFWTR","REV_AT_EPOCH":"709","SEMIMAJOR_AXIS":"6727.941","BSTAR":"0.00005915100000","ECCENTRICITY":"0.00011960"},{"MEAN_MOTION_DOT":"0.00041864","OBJECT_ID":"2022-017S","TLE_LINE1":"1 51784U 22017S   22093.91667824  .00041864  00000-0  74556-3 0  9999","MEAN_ELEMENT_THEORY":"SGP4","PERIAPSIS":"416.396","MEAN_MOTION":"15.49733569","INCLINATION":"53.2170","TLE_LINE2":"2 51784  53.2170 320.4323 0001634  51.0686 245.7429 15.49733569  7093","LAUNCH_DATE":"2022-02-25","EPOCH":"2022-04-03T22:00:00.999936","DECAY_DATE":null,"ELEMENT_SET_NO":"999","NORAD_CAT_ID":"51784","APOAPSIS":"418.617","EPHEMERIS_TYPE":"0","RCS_SIZE":"LARGE","TIME_SYSTEM":"UTC","REF_FRAME":"TEME","GP_ID":"200357109","RA_OF_ASC_NODE":"320.4323","FILE":"3386914","OBJECT_TYPE":"PAYLOAD","CENTER_NAME":"EARTH","SITE":"AFWTR","REV_AT_EPOCH":"709","SEMIMAJOR_AXIS":"6795.642","BSTAR":"0.00074556000000","ECCENTRICITY":"0.00016340","ARG_OF_PERICENTER":"51.0686","CLASSIFICATION_TYPE":"U","MEAN_MOTION_DDOT":"0.0000000000000","COUNTRY_CODE":"US","OBJECT_NAME":"STARLINK-3632","MEAN_ANOMALY":"245.7429","PERIOD":"92.919"},{"ARG_OF_PERICENTER":"78.7157","CLASSIFICATION_TYPE":"U","OBJECT_NAME":"STARLINK-3646","MEAN_ANOMALY":"161.5597","PERIOD":"91.537","MEAN_MOTION_DDOT":"0.0000000000000","COUNTRY_CODE":"US","SEMIMAJOR_AXIS":"6728.081","REV_AT_EPOCH":"369","SITE":"AFWTR","ECCENTRICITY":"0.00009000","BSTAR":"0.00038193000000","TIME_SYSTEM":"UTC","REF_FRAME":"TEME","GP_ID":"200382577","RA_OF_ASC_NODE":"319.1437","RCS_SIZE":"LARGE","NORAD_CAT_ID":"51785","APOAPSIS":"350.551","EPHEMERIS_TYPE":"0","OBJECT_TYPE":"PAYLOAD","CENTER_NAME":"EARTH","FILE":"3386965","TLE_LINE1":"1 51785U 22017T   22093.91667824  .00053171  00000-0  38193-3 0  9991","MEAN_MOTION_DOT":"0.00053171","OBJECT_ID":"2022-017T","DECAY_DATE":null,"ELEMENT_SET_NO":"999","TLE_LINE2":"2 51785  53.2143 319.1437 0000900  78.7157 161.5597 15.73134969  3698","INCLINATION":"53.2143","LAUNCH_DATE":"2022-02-25","EPOCH":"2022-04-03T22:00:00.999936","PERIAPSIS":"349.340","MEAN_MOTION":"15.73134969","MEAN_ELEMENT_THEORY":"SGP4"}];
